STARLINK-36756          
1 67817U 26032W   26059.77288798  .00195147  00000+0  99337-3 0  9990
2 67817  97.2819 245.8768 0001230  89.1704 270.9706 15.80894143  3379
STARLINK-36346          
1 67818U 26032X   26059.77120938  .00206952  00000+0  10523-2 0  9998
2 67818  97.2820 245.8792 0001198  89.9561 270.1845 15.80886846  3389
STARLINK-36788          
1 67819U 26032Y   26059.83908383 -.00211479  00000+0 -12433-2 0  9998
2 67819  97.2818 245.9396 0003743 340.2158  19.8964 15.78699261  3392
STARLINK-36353          
1 67820U 26032Z   26059.77398851  .00233818  00000+0  11843-2 0  9999
2 67820  97.2815 245.8747 0001260 106.4183 253.7224 15.80903678  3382
STARLINK-36644          
1 67821U 26033A   26059.85566510  .00558601  00000+0  24813-2 0  9990
2 67821  42.9979 325.6648 0001638 264.1263  95.9422 15.82072810  3224
STARLINK-36643          
1 67822U 26033B   26059.79178300  .00401311  00000+0  18198-2 0  9994
2 67822  42.9972 326.0441 0001843 226.7661 133.3057 15.82034776  3217
STARLINK-36646          
1 67823U 26033C   26059.72715618  .01309326  00000+0  47601-2 0  9992
2 67823  42.9957 326.4206 0017554 252.1405 107.7553 15.84823117  3201
STARLINK-36647          
1 67824U 26033D   26059.79028361  .00375877  00000+0  17069-2 0  9990
2 67824  42.9975 326.0333 0002123 233.1836 126.8841 15.82069816  3211
STARLINK-36648          
1 67825U 26033E   26059.78953214  .00195164  00000+0  90642-3 0  9992
2 67825  42.9961 326.0253 0001660 212.1572 147.9199 15.82068009  3210
STARLINK-35865          
1 67826U 26033F   26059.78878483  .00576633  00000+0  25198-2 0  9994
2 67826  42.9984 326.0205 0003033 215.6114 144.4556 15.82379419  3218
STARLINK-36289          
1 67827U 26033G   26059.78802878  .00364873  00000+0  16667-2 0  9992
2 67827  42.9972 326.0146 0000773 222.1590 137.9223 15.81971657  3218
STARLINK-36670          
1 67828U 26033H   26059.78727506  .00068607  00000+0  32581-3 0  9997
2 67828  42.9970 326.0080 0001794 242.2022 117.8668 15.82012889  3215
