CCSDS_OMM_VERS = 2.0
CREATION_DATE  = 
ORIGINATOR     = 

OBJECT_NAME    = STARLINK-36756
OBJECT_ID      = 2026-032W
CENTER_NAME    = EARTH
REF_FRAME      = TEME
TIME_SYSTEM    = UTC
MEAN_ELEMENT_THEORY = SGP/SGP4

EPOCH          = 2026-02-28T18:32:57.521472
MEAN_MOTION    = 15.80894143
ECCENTRICITY   = .000123
INCLINATION    = 97.2819
RA_OF_ASC_NODE = 245.8768
ARG_OF_PERICENTER = 89.1704
MEAN_ANOMALY   = 270.9706

EPHEMERIS_TYPE = 0
CLASSIFICATION_TYPE = U
NORAD_CAT_ID   = 67817
ELEMENT_SET_NO = 999
REV_AT_EPOCH   = 337
BSTAR          = .99337E-3
MEAN_MOTION_DOT = .195147E-2
MEAN_MOTION_DDOT = 0

CCSDS_OMM_VERS = 2.0
CREATION_DATE  = 
ORIGINATOR     = 

OBJECT_NAME    = STARLINK-36346
OBJECT_ID      = 2026-032X
CENTER_NAME    = EARTH
REF_FRAME      = TEME
TIME_SYSTEM    = UTC
MEAN_ELEMENT_THEORY = SGP/SGP4

EPOCH          = 2026-02-28T18:30:32.490432
MEAN_MOTION    = 15.80886846
ECCENTRICITY   = .0001198
INCLINATION    = 97.2820
RA_OF_ASC_NODE = 245.8792
ARG_OF_PERICENTER = 89.9561
MEAN_ANOMALY   = 270.1845

EPHEMERIS_TYPE = 0
CLASSIFICATION_TYPE = U
NORAD_CAT_ID   = 67818
ELEMENT_SET_NO = 999
REV_AT_EPOCH   = 338
BSTAR          = .10523E-2
MEAN_MOTION_DOT = .206952E-2
MEAN_MOTION_DDOT = 0

CCSDS_OMM_VERS = 2.0
CREATION_DATE  = 
ORIGINATOR     = 

OBJECT_NAME    = STARLINK-36788
OBJECT_ID      = 2026-032Y
CENTER_NAME    = EARTH
REF_FRAME      = TEME
TIME_SYSTEM    = UTC
MEAN_ELEMENT_THEORY = SGP/SGP4

EPOCH          = 2026-02-28T20:08:16.842912
MEAN_MOTION    = 15.78699261
ECCENTRICITY   = .0003743
INCLINATION    = 97.2818
RA_OF_ASC_NODE = 245.9396
ARG_OF_PERICENTER = 340.2158
MEAN_ANOMALY   = 19.8964

EPHEMERIS_TYPE = 0
CLASSIFICATION_TYPE = U
NORAD_CAT_ID   = 67819
ELEMENT_SET_NO = 999
REV_AT_EPOCH   = 339
BSTAR          = -.12433E-2
MEAN_MOTION_DOT = -.211479E-2
MEAN_MOTION_DDOT = 0

CCSDS_OMM_VERS = 2.0
CREATION_DATE  = 
ORIGINATOR     = 

OBJECT_NAME    = STARLINK-36353
OBJECT_ID      = 2026-032Z
CENTER_NAME    = EARTH
REF_FRAME      = TEME
TIME_SYSTEM    = UTC
MEAN_ELEMENT_THEORY = SGP/SGP4

EPOCH          = 2026-02-28T18:34:32.607264
MEAN_MOTION    = 15.80903678
ECCENTRICITY   = .000126
INCLINATION    = 97.2815
RA_OF_ASC_NODE = 245.8747
ARG_OF_PERICENTER = 106.4183
MEAN_ANOMALY   = 253.7224

EPHEMERIS_TYPE = 0
CLASSIFICATION_TYPE = U
NORAD_CAT_ID   = 67820
ELEMENT_SET_NO = 999
REV_AT_EPOCH   = 338
BSTAR          = .11843E-2
MEAN_MOTION_DOT = .233818E-2
MEAN_MOTION_DDOT = 0

CCSDS_OMM_VERS = 2.0
CREATION_DATE  = 
ORIGINATOR     = 

OBJECT_NAME    = STARLINK-36644
OBJECT_ID      = 2026-033A
CENTER_NAME    = EARTH
REF_FRAME      = TEME
TIME_SYSTEM    = UTC
MEAN_ELEMENT_THEORY = SGP/SGP4

EPOCH          = 2026-02-28T20:32:09.464640
MEAN_MOTION    = 15.82072810
ECCENTRICITY   = .0001638
INCLINATION    = 42.9979
RA_OF_ASC_NODE = 325.6648
ARG_OF_PERICENTER = 264.1263
MEAN_ANOMALY   = 95.9422

EPHEMERIS_TYPE = 0
CLASSIFICATION_TYPE = U
NORAD_CAT_ID   = 67821
ELEMENT_SET_NO = 999
REV_AT_EPOCH   = 322
BSTAR          = .24813E-2
MEAN_MOTION_DOT = .558601E-2
MEAN_MOTION_DDOT = 0

CCSDS_OMM_VERS = 2.0
CREATION_DATE  = 
ORIGINATOR     = 

OBJECT_NAME    = STARLINK-36643
OBJECT_ID      = 2026-033B
CENTER_NAME    = EARTH
REF_FRAME      = TEME
TIME_SYSTEM    = UTC
MEAN_ELEMENT_THEORY = SGP/SGP4

EPOCH          = 2026-02-28T19:00:10.051200
MEAN_MOTION    = 15.82034776
ECCENTRICITY   = .0001843
INCLINATION    = 42.9972
RA_OF_ASC_NODE = 326.0441
ARG_OF_PERICENTER = 226.7661
MEAN_ANOMALY   = 133.3057

EPHEMERIS_TYPE = 0
CLASSIFICATION_TYPE = U
NORAD_CAT_ID   = 67822
ELEMENT_SET_NO = 999
REV_AT_EPOCH   = 321
BSTAR          = .18198E-2
MEAN_MOTION_DOT = .401311E-2
MEAN_MOTION_DDOT = 0

CCSDS_OMM_VERS = 2.0
CREATION_DATE  = 
ORIGINATOR     = 

OBJECT_NAME    = STARLINK-36646
OBJECT_ID      = 2026-033C
CENTER_NAME    = EARTH
REF_FRAME      = TEME
TIME_SYSTEM    = UTC
MEAN_ELEMENT_THEORY = SGP/SGP4

EPOCH          = 2026-02-28T17:27:06.293952
MEAN_MOTION    = 15.84823117
ECCENTRICITY   = .0017554
INCLINATION    = 42.9957
RA_OF_ASC_NODE = 326.4206
ARG_OF_PERICENTER = 252.1405
MEAN_ANOMALY   = 107.7553

EPHEMERIS_TYPE = 0
CLASSIFICATION_TYPE = U
NORAD_CAT_ID   = 67823
ELEMENT_SET_NO = 999
REV_AT_EPOCH   = 320
BSTAR          = .47601E-2
MEAN_MOTION_DOT = .1309326E-1
MEAN_MOTION_DDOT = 0

CCSDS_OMM_VERS = 2.0
CREATION_DATE  = 
ORIGINATOR     = 

OBJECT_NAME    = STARLINK-36647
OBJECT_ID      = 2026-033D
CENTER_NAME    = EARTH
REF_FRAME      = TEME
TIME_SYSTEM    = UTC
MEAN_ELEMENT_THEORY = SGP/SGP4

EPOCH          = 2026-02-28T18:58:00.503904
MEAN_MOTION    = 15.82069816
ECCENTRICITY   = .0002123
INCLINATION    = 42.9975
RA_OF_ASC_NODE = 326.0333
ARG_OF_PERICENTER = 233.1836
MEAN_ANOMALY   = 126.8841

EPHEMERIS_TYPE = 0
CLASSIFICATION_TYPE = U
NORAD_CAT_ID   = 67824
ELEMENT_SET_NO = 999
REV_AT_EPOCH   = 321
BSTAR          = .17069E-2
MEAN_MOTION_DOT = .375877E-2
MEAN_MOTION_DDOT = 0

CCSDS_OMM_VERS = 2.0
CREATION_DATE  = 
ORIGINATOR     = 

OBJECT_NAME    = STARLINK-36648
OBJECT_ID      = 2026-033E
CENTER_NAME    = EARTH
REF_FRAME      = TEME
TIME_SYSTEM    = UTC
MEAN_ELEMENT_THEORY = SGP/SGP4

EPOCH          = 2026-02-28T18:56:55.576896
MEAN_MOTION    = 15.82068009
ECCENTRICITY   = .000166
INCLINATION    = 42.9961
RA_OF_ASC_NODE = 326.0253
ARG_OF_PERICENTER = 212.1572
MEAN_ANOMALY   = 147.9199

EPHEMERIS_TYPE = 0
CLASSIFICATION_TYPE = U
NORAD_CAT_ID   = 67825
ELEMENT_SET_NO = 999
REV_AT_EPOCH   = 321
BSTAR          = .90642E-3
MEAN_MOTION_DOT = .195164E-2
MEAN_MOTION_DDOT = 0

CCSDS_OMM_VERS = 2.0
CREATION_DATE  = 
ORIGINATOR     = 

OBJECT_NAME    = STARLINK-35865
OBJECT_ID      = 2026-033F
CENTER_NAME    = EARTH
REF_FRAME      = TEME
TIME_SYSTEM    = UTC
MEAN_ELEMENT_THEORY = SGP/SGP4

EPOCH          = 2026-02-28T18:55:51.009312
MEAN_MOTION    = 15.82379419
ECCENTRICITY   = .0003033
INCLINATION    = 42.9984
RA_OF_ASC_NODE = 326.0205
ARG_OF_PERICENTER = 215.6114
MEAN_ANOMALY   = 144.4556

EPHEMERIS_TYPE = 0
CLASSIFICATION_TYPE = U
NORAD_CAT_ID   = 67826
ELEMENT_SET_NO = 999
REV_AT_EPOCH   = 321
BSTAR          = .25198E-2
MEAN_MOTION_DOT = .576633E-2
MEAN_MOTION_DDOT = 0

CCSDS_OMM_VERS = 2.0
CREATION_DATE  = 
ORIGINATOR     = 

OBJECT_NAME    = STARLINK-36289
OBJECT_ID      = 2026-033G
CENTER_NAME    = EARTH
REF_FRAME      = TEME
TIME_SYSTEM    = UTC
MEAN_ELEMENT_THEORY = SGP/SGP4

EPOCH          = 2026-02-28T18:54:45.686592
MEAN_MOTION    = 15.81971657
ECCENTRICITY   = .0000773
INCLINATION    = 42.9972
RA_OF_ASC_NODE = 326.0146
ARG_OF_PERICENTER = 222.1590
MEAN_ANOMALY   = 137.9223

EPHEMERIS_TYPE = 0
CLASSIFICATION_TYPE = U
NORAD_CAT_ID   = 67827
ELEMENT_SET_NO = 999
REV_AT_EPOCH   = 321
BSTAR          = .16667E-2
MEAN_MOTION_DOT = .364873E-2
MEAN_MOTION_DDOT = 0

CCSDS_OMM_VERS = 2.0
CREATION_DATE  = 
ORIGINATOR     = 

OBJECT_NAME    = STARLINK-36670
OBJECT_ID      = 2026-033H
CENTER_NAME    = EARTH
REF_FRAME      = TEME
TIME_SYSTEM    = UTC
MEAN_ELEMENT_THEORY = SGP/SGP4

EPOCH          = 2026-02-28T18:53:40.565184
MEAN_MOTION    = 15.82012889
ECCENTRICITY   = .0001794
INCLINATION    = 42.9970
RA_OF_ASC_NODE = 326.0080
ARG_OF_PERICENTER = 242.2022
MEAN_ANOMALY   = 117.8668

EPHEMERIS_TYPE = 0
CLASSIFICATION_TYPE = U
NORAD_CAT_ID   = 67828
ELEMENT_SET_NO = 999
REV_AT_EPOCH   = 321
BSTAR          = .32581E-3
MEAN_MOTION_DOT = .68607E-3
MEAN_MOTION_DDOT = 0

